{"type": "FeatureCollection", "features": [{"type": "Feature", "properties": {"norad_id": 66376, "name": "SHIYAN-32 01", "group": "last-30-days", "lat": 9.1273682196169, "lon": 14.3242889144167, "alt_km": 445.4222353521136, "timestamp": "2025-12-07T20:38:12.865305+00:00", "meta": {"OBJECT_NAME": "SHIYAN-32 01", "OBJECT_ID": "2025-255A", "EPOCH": "2025-12-07T18:21:19.840608", "MEAN_MOTION": 15.42545026, "ECCENTRICITY": 0.0013503, "INCLINATION": 52.9946, "RA_OF_ASC_NODE": 201.7362, "ARG_OF_PERICENTER": 26.4471, "MEAN_ANOMALY": 333.7219, "EPHEMERIS_TYPE": 0, "CLASSIFICATION_TYPE": "U", "NORAD_CAT_ID": 66376, "ELEMENT_SET_NO": 999, "REV_AT_EPOCH": 458, "BSTAR": 0.00063206, "MEAN_MOTION_DOT": 0.00027633, "MEAN_MOTION_DDOT": 0}, "tle": {"line1": "1 66376U 25255A   25341.76481297  .00027633  00000+0  63206-3 0  9996", "line2": "2 66376  52.9946 201.7362 0013503  26.4471 333.7219 15.42545026  4581"}}, "geometry": {"type": "Point", "coordinates": [14.3242889144167, 9.1273682196169]}}, {"type": "Feature", "properties": {"norad_id": 66377, "name": "CZ-11 DEB", "group": "last-30-days", "lat": -50.91747580339663, "lon": 89.33512061760158, "alt_km": 444.6651355895283, "timestamp": "2025-12-07T20:38:12.865350+00:00", "meta": {"OBJECT_NAME": "CZ-11 DEB", "OBJECT_ID": "2025-255B", "EPOCH": "2025-12-07T02:26:30.879456", "MEAN_MOTION": 15.43972158, "ECCENTRICITY": 0.00137825, "INCLINATION": 52.9947, "RA_OF_ASC_NODE": 204.7184, "ARG_OF_PERICENTER": 21.899, "MEAN_ANOMALY": 338.2601, "EPHEMERIS_TYPE": 0, "CLASSIFICATION_TYPE": "U", "NORAD_CAT_ID": 66377, "ELEMENT_SET_NO": 999, "REV_AT_EPOCH": 434, "BSTAR": 0.0010815223, "MEAN_MOTION_DOT": 0.00050097, "MEAN_MOTION_DDOT": 0}, "tle": {"line1": "1 66377U 25255B   25341.10174629  .00050097  00000+0  10815-2 0  9990", "line2": "2 66377  52.9947 204.7184 0013782  21.8990 338.2601 15.43972158  4342"}}, "geometry": {"type": "Point", "coordinates": [89.33512061760158, -50.91747580339663]}}, {"type": "Feature", "properties": {"norad_id": 66378, "name": "SHIYAN-32 02", "group": "last-30-days", "lat": -46.50254733015975, "lon": 148.3821694862434, "alt_km": 436.01721586136046, "timestamp": "2025-12-07T20:38:12.865367+00:00", "meta": {"OBJECT_NAME": "SHIYAN-32 02", "OBJECT_ID": "2025-255C", "EPOCH": "2025-12-07T17:48:46.275264", "MEAN_MOTION": 15.44688643, "ECCENTRICITY": 0.0012196, "INCLINATION": 52.9922, "RA_OF_ASC_NODE": 201.593, "ARG_OF_PERICENTER": 18.5517, "MEAN_ANOMALY": 341.5931, "EPHEMERIS_TYPE": 0, "CLASSIFICATION_TYPE": "U", "NORAD_CAT_ID": 66378, "ELEMENT_SET_NO": 999, "REV_AT_EPOCH": 444, "BSTAR": 0.0011542, "MEAN_MOTION_DOT": 0.00054813, "MEAN_MOTION_DDOT": 0}, "tle": {"line1": "1 66378U 25255C   25341.74220226  .00054813  00000+0  11542-2 0  9994", "line2": "2 66378  52.9922 201.5930 0012196  18.5517 341.5931 15.44688643  4444"}}, "geometry": {"type": "Point", "coordinates": [148.3821694862434, -46.50254733015975]}}, {"type": "Feature", "properties": {"norad_id": 66379, "name": "SHIYAN-32 03", "group": "last-30-days", "lat": -20.048019208742048, "lon": 37.18764572607904, "alt_km": 451.32118210452063, "timestamp": "2025-12-07T20:38:12.865401+00:00", "meta": {"OBJECT_NAME": "SHIYAN-32 03", "OBJECT_ID": "2025-255D", "EPOCH": "2025-12-07T18:11:46.849632", "MEAN_MOTION": 15.42864581, "ECCENTRICITY": 0.0015574, "INCLINATION": 52.9955, "RA_OF_ASC_NODE": 201.6956, "ARG_OF_PERICENTER": 27.4698, "MEAN_ANOMALY": 332.7127, "EPHEMERIS_TYPE": 0, "CLASSIFICATION_TYPE": "U", "NORAD_CAT_ID": 66379, "ELEMENT_SET_NO": 999, "REV_AT_EPOCH": 446, "BSTAR": 0.00052025, "MEAN_MOTION_DOT": 0.00022927, "MEAN_MOTION_DDOT": 0}, "tle": {"line1": "1 66379U 25255D   25341.75818113  .00022927  00000+0  52025-3 0  9997", "line2": "2 66379  52.9955 201.6956 0015574  27.4698 332.7127 15.42864581  4468"}}, "geometry": {"type": "Point", "coordinates": [37.18764572607904, -20.048019208742048]}}, {"type": "Feature", "properties": {"norad_id": 66380, "name": "STARLINK-35139", "group": "last-30-days", "lat": 52.14566883661632, "lon": 32.92955337049093, "alt_km": 438.7129479139676, "timestamp": "2025-12-07T20:38:12.865419+00:00", "meta": {"OBJECT_NAME": "STARLINK-35139", "OBJECT_ID": "2025-257A", "EPOCH": "2025-12-07T03:04:14.350368", "MEAN_MOTION": 15.39602299, "ECCENTRICITY": 0.00018974, "INCLINATION": 53.1598, "RA_OF_ASC_NODE": 291.0986, "ARG_OF_PERICENTER": 92.6937, "MEAN_ANOMALY": 267.4285, "EPHEMERIS_TYPE": 0, "CLASSIFICATION_TYPE": "U", "NORAD_CAT_ID": 66380, "ELEMENT_SET_NO": 999, "REV_AT_EPOCH": 544, "BSTAR": 0.0015986838, "MEAN_MOTION_DOT": 0.00064049, "MEAN_MOTION_DDOT": 0}, "tle": {"line1": "1 66380U 25257A   25341.12794387  .00064049  00000+0  15987-2 0  9994", "line2": "2 66380  53.1598 291.0986 0001897  92.6937 267.4285 15.39602299  5445"}}, "geometry": {"type": "Point", "coordinates": [32.92955337049093, 52.14566883661632]}}, {"type": "Feature", "properties": {"norad_id": 66381, "name": "STARLINK-35158", "group": "last-30-days", "lat": 51.72078994564713, "lon": 35.83423500272618, "alt_km": 439.5385712636071, "timestamp": "2025-12-07T20:38:12.865431+00:00", "meta": {"OBJECT_NAME": "STARLINK-35158", "OBJECT_ID": "2025-257B", "EPOCH": "2025-12-07T03:03:45.835776", "MEAN_MOTION": 15.39624258, "ECCENTRICITY": 8.344e-05, "INCLINATION": 53.1597, "RA_OF_ASC_NODE": 291.0954, "ARG_OF_PERICENTER": 80.0024, "MEAN_ANOMALY": 280.1075, "EPHEMERIS_TYPE": 0, "CLASSIFICATION_TYPE": "U", "NORAD_CAT_ID": 66381, "ELEMENT_SET_NO": 999, "REV_AT_EPOCH": 550, "BSTAR": 0.0011196292, "MEAN_MOTION_DOT": 0.00044653, "MEAN_MOTION_DDOT": 0}, "tle": {"line1": "1 66381U 25257B   25341.12761384  .00044653  00000+0  11196-2 0  9993", "line2": "2 66381  53.1597 291.0954 0000834  80.0024 280.1075 15.39624258  5503"}}, "geometry": {"type": "Point", "coordinates": [35.83423500272618, 51.72078994564713]}}, {"type": "Feature", "properties": {"norad_id": 66382, "name": "STARLINK-35639", "group": "last-30-days", "lat": 40.88552875826098, "lon": 67.12467334917632, "alt_km": 441.25072092931805, "timestamp": "2025-12-07T20:38:12.865445+00:00", "meta": {"OBJECT_NAME": "STARLINK-35639", "OBJECT_ID": "2025-257C", "EPOCH": "2025-12-07T06:04:29.932608", "MEAN_MOTION": 15.39594014, "ECCENTRICITY": 0.00014072, "INCLINATION": 53.1611, "RA_OF_ASC_NODE": 290.4558, "ARG_OF_PERICENTER": 57.4123, "MEAN_ANOMALY": 302.7018, "EPHEMERIS_TYPE": 0, "CLASSIFICATION_TYPE": "U", "NORAD_CAT_ID": 66382, "ELEMENT_SET_NO": 999, "REV_AT_EPOCH": 552, "BSTAR": 0.0020980816, "MEAN_MOTION_DOT": 0.00084384, "MEAN_MOTION_DDOT": 0}, "tle": {"line1": "1 66382U 25257C   25341.25312422  .00084384  00000+0  20981-2 0  9990", "line2": "2 66382  53.1611 290.4558 0001407  57.4123 302.7018 15.39594014  5525"}}, "geometry": {"type": "Point", "coordinates": [67.12467334917632, 40.88552875826098]}}, {"type": "Feature", "properties": {"norad_id": 66383, "name": "STARLINK-35690", "group": "last-30-days", "lat": 22.884282400140492, "lon": 89.09638265800494, "alt_km": 444.04190307114004, "timestamp": "2025-12-07T20:38:12.865456+00:00", "meta": {"OBJECT_NAME": "STARLINK-35690", "OBJECT_ID": "2025-257D", "EPOCH": "2025-12-07T05:57:49.098816", "MEAN_MOTION": 15.39623743, "ECCENTRICITY": 8.668e-05, "INCLINATION": 53.1619, "RA_OF_ASC_NODE": 290.4252, "ARG_OF_PERICENTER": 100.8019, "MEAN_ANOMALY": 259.3083, "EPHEMERIS_TYPE": 0, "CLASSIFICATION_TYPE": "U", "NORAD_CAT_ID": 66383, "ELEMENT_SET_NO": 999, "REV_AT_EPOCH": 552, "BSTAR": 0.0020696904, "MEAN_MOTION_DOT": 0.00083306, "MEAN_MOTION_DDOT": 0}, "tle": {"line1": "1 66383U 25257D   25341.24848494  .00083306  00000+0  20697-2 0  9990", "line2": "2 66383  53.1619 290.4252 0000866 100.8019 259.3083 15.39623743  5521"}}, "geometry": {"type": "Point", "coordinates": [89.09638265800494, 22.884282400140492]}}, {"type": "Feature", "properties": {"norad_id": 66384, "name": "STARLINK-35662", "group": "last-30-days", "lat": 21.50814598032711, "lon": 90.35682445569105, "alt_km": 444.4503211074025, "timestamp": "2025-12-07T20:38:12.865467+00:00", "meta": {"OBJECT_NAME": "STARLINK-35662", "OBJECT_ID": "2025-257E", "EPOCH": "2025-12-07T05:57:20.157408", "MEAN_MOTION": 15.39618794, "ECCENTRICITY": 5.475e-05, "INCLINATION": 53.1601, "RA_OF_ASC_NODE": 290.4243, "ARG_OF_PERICENTER": 117.6802, "MEAN_ANOMALY": 242.4259, "EPHEMERIS_TYPE": 0, "CLASSIFICATION_TYPE": "U", "NORAD_CAT_ID": 66384, "ELEMENT_SET_NO": 999, "REV_AT_EPOCH": 552, "BSTAR": 0.0014219292, "MEAN_MOTION_DOT": 0.00056899, "MEAN_MOTION_DDOT": 0}, "tle": {"line1": "1 66384U 25257E   25341.24814997  .00056899  00000+0  14219-2 0  9992", "line2": "2 66384  53.1601 290.4243 0000547 117.6802 242.4259 15.39618794  5523"}}, "geometry": {"type": "Point", "coordinates": [90.35682445569105, 21.50814598032711]}}, {"type": "Feature", "properties": {"norad_id": 66385, "name": "STARLINK-35659", "group": "last-30-days", "lat": 39.70398665559423, "lon": 69.0934402205304, "alt_km": 440.99454652483473, "timestamp": "2025-12-07T20:38:12.865477+00:00", "meta": {"OBJECT_NAME": "STARLINK-35659", "OBJECT_ID": "2025-257F", "EPOCH": "2025-12-06T23:50:06.755136", "MEAN_MOTION": 15.39593436, "ECCENTRICITY": 0.00010478, "INCLINATION": 53.1604, "RA_OF_ASC_NODE": 291.6782, "ARG_OF_PERICENTER": 128.028, "MEAN_ANOMALY": 232.0819, "EPHEMERIS_TYPE": 0, "CLASSIFICATION_TYPE": "U", "NORAD_CAT_ID": 66385, "ELEMENT_SET_NO": 999, "REV_AT_EPOCH": 548, "BSTAR": 0.0020549824, "MEAN_MOTION_DOT": 0.00082621, "MEAN_MOTION_DDOT": 0}, "tle": {"line1": "1 66385U 25257F   25340.99313374  .00082621  00000+0  20550-2 0  9994", "line2": "2 66385  53.1604 291.6782 0001047 128.0280 232.0819 15.39593436  5487"}}, "geometry": {"type": "Point", "coordinates": [69.0934402205304, 39.70398665559423]}}]}